     3.02           N: GNSS NAV DATA    M: Mixed            RINEX VERSION / TYPE
CHC                 CHC                 20220602 033024 UTC PGM / RUN BY / DATE 
    18                                                      LEAP SECONDS        
                                                            END OF HEADER       
C11 2022  6  2  3  0  0  3.89072345570D-04  2.30082619623D-11  0.00000000000D+00
      2.10000000000D+01  3.90000000000D+01  3.28120810406D-09  2.13722735809D+00
      2.01817601919D-06  1.80282746442D-03  2.60770320892D-08  5.28260429764D+03
      3.56400000000D+05  9.31322574615D-10  1.87766812309D+00 -1.86264514923D-09
      9.89264057379D-01  3.74390625000D+02 -1.90086504892D+00 -6.84957102641D-09
      1.79293182566D-10  0.00000000000D+00  8.56000000000D+02  0.00000000000D+00
      9.65000000000D+00  0.00000000000D+00  3.70000000000D-09  1.50000000000D-09
      8.20465200000D+08  0.00000000000D+00  0.00000000000D+00  0.00000000000D+00
C12 2022  6  2  3  0  0 -6.06157467701D-04  6.94022617154D-12  0.00000000000D+00
      1.00000000000D+00  4.28437500000D+01  3.32442418990D-09  2.87656054550D+00
      2.11829319596D-06  8.80190287717D-04 -1.70897692442D-07  5.28260733986D+03
      3.56400000000D+05 -2.84053385258D-08  1.86588917339D+00 -6.05359673500D-09
      9.87817743420D-01  3.78484375000D+02 -1.86832057395D+00 -6.88242953796D-09
      1.70364239212D-10  0.00000000000D+00  8.56000000000D+02  0.00000000000D+00
      9.65000000000D+00  0.00000000000D+00  2.90000000000D-09 -3.00000000000D-10
      8.20465200000D+08  0.00000000000D+00  0.00000000000D+00  0.00000000000D+00
C13 2022  6  2  3  0  0 -1.56990718096D-05  1.08641984298D-11  0.00000000000D+00
      1.00000000000D+00 -7.82328125000D+02  5.41808282775D-10  2.11712288308D+00
     -2.49184668064D-05  4.26618615165D-03  3.23168933392D-07  6.49317089653D+03
      3.56400000000D+05  9.96515154839D-08  2.90657814694D+00  2.84984707832D-07
      1.01432532455D+00  2.50453125000D+02 -2.50352105372D+00 -2.00436920431D-09
     -2.60367988229D-10  0.00000000000D+00  8.56000000000D+02  0.00000000000D+00
      9.65000000000D+00  0.00000000000D+00 -1.02000000000D-08  2.70000000000D-09
      8.20465200000D+08  0.00000000000D+00  0.00000000000D+00  0.00000000000D+00
C16 2022  6  2  2  0  0  1.36592541821D-04  2.68229882749D-12  0.00000000000D+00
      1.00000000000D+00 -1.14062500000D+01  1.78471719778D-09 -1.96464948994D-01
     -4.14438545704D-07  4.84414643142D-03  3.14554199576D-06  6.49357357407D+03
      3.52800000000D+05  6.89178705215D-08 -1.23299908892D+00 -1.31316483021D-07
      9.60256745702D-01  1.29734375000D+02 -2.32451611100D+00 -1.86686347664D-09
      8.32177520677D-11  0.00000000000D+00  8.56000000000D+02  0.00000000000D+00
      9.65000000000D+00  0.00000000000D+00 -3.30000000000D-09  4.40000000000D-09
      8.20461600000D+08  0.00000000000D+00  0.00000000000D+00  0.00000000000D+00
C19 2022  6  2  3  0  0  8.63477122039D-04 -4.59721150037D-12  0.00000000000D+00
      1.00000000000D+00 -4.66406250000D+01  3.58122060078D-09  1.91432535671D+00
     -2.37300992012D-06  9.99334151857D-04  1.04336068034D-05  5.28262796402D+03
      3.56400000000D+05 -6.05359673500D-09 -2.34407923464D+00 -2.65426933765D-08
      9.69414551436D-01  1.55546875000D+02 -1.03433455189D+00 -6.43669668568D-09
      5.39665336370D-10  0.00000000000D+00  8.56000000000D+02  0.00000000000D+00
      9.65000000000D+00  0.00000000000D+00  1.18000000000D-08  1.18000000000D-08
      8.20465200000D+08  1.00000000000D+00  0.00000000000D+00  0.00000000000D+00
C22 2022  6  2  3  0  0 -9.66364284977D-04  2.14406270516D-12  0.00000000000D+00
      1.00000000000D+00 -5.86562500000D+01  3.66336687965D-09  2.93884012512D-01
     -2.77999788523D-06  6.70142238960D-04  1.04368664324D-05  5.28262577438D+03
      3.56400000000D+05 -2.60770320892D-08 -2.34207905697D+00  2.00234353542D-08
      9.68697458252D-01  1.56859375000D+02 -2.06779150507D-01 -6.42598195366D-09
      5.64309220030D-10  0.00000000000D+00  8.56000000000D+02  0.00000000000D+00
      9.65000000000D+00  0.00000000000D+00  1.59000000000D-08  1.59000000000D-08
      8.20465200000D+08  1.00000000000D+00  0.00000000000D+00  0.00000000000D+00
C23 2022  6  2  3  0  0 -9.31602437049D-04 -1.76569869836D-12  0.00000000000D+00
      1.00000000000D+00  2.40625000000D+00  4.09731352670D-09  2.90371073242D+00
      1.75554305315D-07  2.31077778153D-04  8.59284773469D-06  5.28261857224D+03
      3.56400000000D+05  6.05359673500D-09 -2.42157233426D-01  6.98491930962D-09
      9.47657183806D-01  1.78343750000D+02 -1.72804385653D+00 -6.74170939069D-09
     -6.51812864908D-10  0.00000000000D+00  8.56000000000D+02  0.00000000000D+00
      9.65000000000D+00  0.00000000000D+00  2.45000000000D-08  2.45000000000D-08
      8.20465200000D+08  1.00000000000D+00  0.00000000000D+00  0.00000000000D+00
C24 2022  6  2  3  0  0 -9.72765381448D-04  1.43174361256D-12  0.00000000000D+00
      1.00000000000D+00  8.45312500000D+00  4.05552607180D-09  2.38417247662D+00
      1.57859176397D-07  4.32071392424D-04  8.69575887918D-06  5.28261356926D+03
      3.56400000000D+05 -9.77888703346D-09 -2.42341142710D-01 -3.44589352608D-08
      9.47650259814D-01  1.79390625000D+02  3.92982804420D-01 -6.67527805212D-09
     -7.30387566431D-10  0.00000000000D+00  8.56000000000D+02  0.00000000000D+00
      9.65000000000D+00  0.00000000000D+00  6.70000000000D-09  6.70000000000D-09
      8.20465200000D+08  1.00000000000D+00  0.00000000000D+00  0.00000000000D+00
C25 2022  6  2  3  0  0 -7.27927777916D-04  5.48805445533D-12  0.00000000000D+00
      1.00000000000D+00  4.78125000000D+00  4.02766776853D-09  1.54923757955D+00
      2.13272869587D-07  3.90915432945D-04  8.49133357406D-06  5.28261895943D+03
      3.56400000000D+05 -3.21306288242D-08 -2.67111376958D-01 -1.21071934700D-08
      9.49005562714D-01  1.84437500000D+02  3.87167988861D-01 -6.67563520986D-09
     -6.78242537238D-10  0.00000000000D+00  8.56000000000D+02  0.00000000000D+00
      9.65000000000D+00  0.00000000000D+00  2.00000000000D-10  2.00000000000D-10
      8.20465200000D+08  1.00000000000D+00  0.00000000000D+00  0.00000000000D+00
C26 2022  6  2  3  0  0  7.29357823730D-04 -5.35216315711D-12  0.00000000000D+00
      1.00000000000D+00  9.96875000000D+00  4.08767026787D-09  3.10363389101D+00
      3.72994691133D-07  6.97906478308D-04  8.17142426968D-06  5.28261913109D+03
      3.56400000000D+05 -1.39698386192D-09 -2.66530556056D-01 -4.79631125927D-08
      9.49057433400D-01  1.86453125000D+02  3.96979955969D-01 -6.70206488219D-09
     -7.24673042684D-10  0.00000000000D+00  8.56000000000D+02  0.00000000000D+00
      9.65000000000D+00  0.00000000000D+00 -5.40000000000D-09 -5.40000000000D-09
      8.20465200000D+08  1.00000000000D+00  0.00000000000D+00  0.00000000000D+00
C34 2022  6  2  3  0  0 -3.90147091821D-04  8.84448070337D-12  0.00000000000D+00
      1.00000000000D+00  5.35312500000D+01  3.76765693803D-09 -2.06941013615D-01
      2.69478186965D-06  6.46978733130D-04 -2.62167304754D-07  5.28262348366D+03
      3.56400000000D+05 -1.90921127796D-08  1.82634176809D+00  2.88709998131D-08
      9.61796962910D-01  3.66906250000D+02  7.98810627909D-01 -7.12208237760D-09
      1.93936649668D-10  0.00000000000D+00  8.56000000000D+02  0.00000000000D+00
      9.65000000000D+00  0.00000000000D+00 -6.90000000000D-09 -6.90000000000D-09
      8.20465200000D+08  1.00000000000D+00  0.00000000000D+00  0.00000000000D+00
C35 2022  6  2  3  0  0  3.01575753838D-04  1.74713576939D-11  0.00000000000D+00
      1.00000000000D+00  4.54062500000D+01  3.88230457071D-09  1.66868958497D+00
      2.18534842134D-06  7.72646279074D-04 -9.94652509689D-07  5.28261747169D+03
      3.56400000000D+05  1.39698386192D-08  1.82623378572D+00 -4.14438545704D-08
      9.61865415773D-01  3.80078125000D+02  5.31971559985D-01 -7.20137139460D-09
      1.27862468842D-10  0.00000000000D+00  8.56000000000D+02  0.00000000000D+00
      9.65000000000D+00  0.00000000000D+00 -3.30000000000D-09 -3.30000000000D-09
      8.20465200000D+08  1.00000000000D+00  0.00000000000D+00  0.00000000000D+00
C38 2022  6  2  3  0  0  2.32248567045D-07  2.81019651993D-12  0.00000000000D+00
      1.00000000000D+00 -8.00203125000D+02  4.41804117201D-10  2.88647619108D+00
     -2.55461782217D-05  1.84255465865D-03  1.15623697639D-06  6.49367576599D+03
      3.56400000000D+05  8.31671059132D-07  2.90901163949D+00  7.23171979189D-07
      9.87403074901D-01  2.24281250000D+02 -2.87473902085D+00 -1.60042380693D-09
     -2.88583449230D-10  0.00000000000D+00  8.56000000000D+02  0.00000000000D+00
      9.65000000000D+00  0.00000000000D+00  2.00000000000D-09  2.00000000000D-09
      8.20465200000D+08  1.00000000000D+00  0.00000000000D+00  0.00000000000D+00
C40 2022  6  2  3  0  0  2.74025835097D-04  3.17701420727D-12  0.00000000000D+00
      1.00000000000D+00  8.40921875000D+02  3.78587198248D-10 -9.21298305372D-01
      2.71094031632D-05  2.32191209216D-03  1.37519091368D-05  6.49369944382D+03
      3.56400000000D+05 -1.17346644402D-07  8.72841873802D-01 -2.93832272291D-07
      1.00018524555D+00 -1.61468750000D+02  2.97051759437D+00 -1.62363905966D-09
     -2.07151485834D-11  0.00000000000D+00  8.56000000000D+02  0.00000000000D+00
      9.65000000000D+00  0.00000000000D+00  9.00000000000D-10  9.00000000000D-10
      8.20465200000D+08  1.00000000000D+00  0.00000000000D+00  0.00000000000D+00
